{"type": "FeatureCollection", "features": [{"id": 282, "type": "Feature", "properties": {"MPIO_CCNCT": "05001"}, "geometry": {"type": "Polygon", "coordinates": [[[-75.66872624785147, 6.372901787098705], [-75.65158812861658, 6.333238764090613], [-75.52182808298105, 6.2886178632065075], [-75.5010175096244, 6.297294149489529], [-75.48632769313735, 6.205573408783314], [-75.48510354176344, 6.190699775155281], [-75.58303565167705, 6.189460305686277], [-75.64791567449483, 6.172107733120237], [-75.67974361021675, 6.163431446837217], [-75.6944334267038, 6.19441818356229], [-75.71034739456475, 6.258870595950439], [-75.71769230280827, 6.360507092408676], [-75.66872624785147, 6.372901787098705]]]}}, {"id": 283, "type": "Feature", "properties": {"MPIO_CCNCT": "05101"}, "geometry": {"type": "Polygon", "coordinates": [[[-75.91478067400942, 5.863479835338518], [-75.91478067400942, 5.847366732241481], [-75.9551776693488, 5.797787953481366], [-76.02005769216656, 5.753167052597261], [-76.06535129300161, 5.764322277818287], [-76.09840338009745, 5.849845671179487], [-76.05433393063633, 5.931650656133677], [-75.91478067400942, 5.863479835338518]]]}}, {"id": 284, "type": "Feature", "properties": {"MPIO_CCNCT": "05107"}, "geometry": {"type": "Polygon", "coordinates": [[[-75.47163787665032, 7.049652117174279], [-75.53529374809416, 6.990157582662141], [-75.60874283052938, 7.055849464519294], [-75.6589330368601, 7.028581136201231], [-75.68708851846027, 7.08435726230636], [-75.60507037640761, 7.17855694195058], [-75.44470654642407, 7.249206701683745], [-75.49734505550263, 7.132696571597473], [-75.47163787665032, 7.049652117174279]]]}}, {"id": 285, "type": "Feature", "properties": {"MPIO_CCNCT": "05113"}, "geometry": {"type": "Polygon", "coordinates": [[[-75.84500404569597, 6.871168513637864], [-75.8707112245483, 6.784405650807662], [-75.83276253195677, 6.68029021541142], [-75.88050443553966, 6.645585070279338], [-75.95885012347055, 6.726150585764527], [-75.98333315094895, 6.760855730896608], [-75.95395351797487, 6.966607662751086], [-75.91722897675727, 6.964128723813081], [-75.84500404569597, 6.871168513637864]]]}}, {"id": 286, "type": "Feature", "properties": {"MPIO_CCNCT": "05120"}, "geometry": {"type": "Polygon", "coordinates": [[[-75.01992601967376, 7.581384519376517], [-75.07990943699585, 7.515692637519365], [-75.02971923066512, 7.4896637786703035], [-74.99421884082143, 7.3942246295570815], [-75.04563319852609, 7.423971896813152], [-75.16560003317026, 7.355801076017993], [-75.24884232659684, 7.457437572476229], [-75.27454950544916, 7.534284679554409], [-75.33208462002341, 7.535524149023411], [-75.36636085849318, 7.6185686034466045], [-75.43858578955447, 7.669386851675723], [-75.48510354176344, 7.736318203001879], [-75.45817221153719, 7.834236291053106], [-75.35411934475397, 7.868941436185187], [-75.33086046864949, 7.925957031759319], [-75.29413592743188, 7.89125188662724], [-75.21579023950099, 7.944549073794363], [-75.16437588179635, 7.8900124171582355], [-75.16437588179635, 7.800770615390029], [-75.03339168478688, 7.771023348133959], [-75.04196074440432, 7.611131786632587], [-75.01992601967376, 7.581384519376517]]]}}, {"id": 287, "type": "Feature", "properties": {"MPIO_CCNCT": "05093"}, "geometry": {"type": "Polygon", "coordinates": [[[-75.85479725668733, 6.2464759012604105], [-75.84133159157422, 6.165910385775222], [-75.99679881606208, 6.077908053476017], [-76.04821317376673, 6.261349534888446], [-76.0041437243056, 6.284899454799499], [-75.93314294461823, 6.21672863400434], [-75.85479725668733, 6.2464759012604105]]]}}, {"id": 288, "type": "Feature", "properties": {"MPIO_CCNCT": "05091"}, "geometry": {"type": "Polygon", "coordinates": [[[-75.89274594927886, 5.754406522066265], [-75.90621161439199, 5.697390926492131], [-76.00291957293169, 5.670122598174068], [-76.07392035261906, 5.677559414988085], [-76.08738601773217, 5.6887146402091116], [-76.06535129300161, 5.764322277818287], [-76.02005769216656, 5.753167052597261], [-75.9551776693488, 5.797787953481366], [-75.89274594927886, 5.754406522066265]]]}}, {"id": 289, "type": "Feature", "properties": {"MPIO_CCNCT": "05088"}, "geometry": {"type": "Polygon", "coordinates": [[[-75.53284544534633, 6.389014890195742], [-75.52182808298105, 6.2886178632065075], [-75.65158812861658, 6.333238764090613], [-75.66872624785147, 6.372901787098705], [-75.66260549098186, 6.40512799329278], [-75.5916047112945, 6.4323963216108435], [-75.53284544534633, 6.389014890195742]]]}}, {"id": 290, "type": "Feature", "properties": {"MPIO_CCNCT": "05086"}, "geometry": {"type": "Polygon", "coordinates": [[[-75.62710510113818, 6.785645120276666], [-75.58548395442489, 6.6753323375354086], [-75.65403643136442, 6.65426135656236], [-75.56467338106825, 6.53031440966207], [-75.64546737174699, 6.494369795060987], [-75.65036397724266, 6.501806611875004], [-75.71769230280827, 6.635669314527316], [-75.72014060555611, 6.651782417624354], [-75.72626136242572, 6.798039814966694], [-75.66750209647755, 6.753418914082591], [-75.62710510113818, 6.785645120276666]]]}}, {"id": 291, "type": "Feature", "properties": {"MPIO_CCNCT": "05079"}, "geometry": {"type": "Polygon", "coordinates": [[[-75.26353214308388, 6.508003959220019], [-75.24149741835332, 6.447269955238877], [-75.3063774411711, 6.391493829133747], [-75.40430955108471, 6.3654649702846875], [-75.44837900054583, 6.436114730017852], [-75.39574049146727, 6.441072607893863], [-75.32351556040597, 6.5129618370960305], [-75.26353214308388, 6.508003959220019]]]}}, {"id": 292, "type": "Feature", "properties": {"MPIO_CCNCT": "05059"}, "geometry": {"type": "Polygon", "coordinates": [[[-75.8168485640958, 6.22540492028736], [-75.74707193578236, 6.146078874271176], [-75.76665835776508, 6.134923649050151], [-75.85479725668733, 6.10021850391807], [-75.84133159157422, 6.165910385775222], [-75.85479725668733, 6.2464759012604105], [-75.8523489539395, 6.248954840198415], [-75.8168485640958, 6.22540492028736]]]}}, {"id": 293, "type": "Feature", "properties": {"MPIO_CCNCT": "05055"}, "geometry": {"type": "Polygon", "coordinates": [[[-74.88037276304685, 5.745730235783244], [-74.99299468944751, 5.715982968527175], [-75.06889207463057, 5.662685781360052], [-75.16070342767458, 5.646572678263013], [-75.23537666148371, 5.676319945519083], [-75.23660081285763, 5.725898724279197], [-75.09827170760465, 5.759364399942276], [-74.99054638669968, 5.7407723579072325], [-74.88037276304685, 5.745730235783244]]]}}, {"id": 294, "type": "Feature", "properties": {"MPIO_CCNCT": "05051"}, "geometry": {"type": "Polygon", "coordinates": [[[-76.36404422823814, 8.709301736169143], [-76.25142230183748, 8.611383648117915], [-76.25509475595925, 8.594031075551875], [-76.31997477877701, 8.544452296791759], [-76.32854383839445, 8.446534208740532], [-76.40321707220359, 8.463886781306572], [-76.43382085655159, 8.450252617147541], [-76.57092581043065, 8.581636380861847], [-76.56602920493498, 8.611383648117915], [-76.45095897578648, 8.689470224665097], [-76.48645936563015, 8.818375049441396], [-76.41301028319495, 8.874151175546528], [-76.36404422823814, 8.709301736169143]]]}}, {"id": 295, "type": "Feature", "properties": {"MPIO_CCNCT": "05044"}, "geometry": {"type": "Polygon", "coordinates": [[[-75.83153838058286, 6.397691176478762], [-75.85602140806125, 6.3270414167455975], [-75.8523489539395, 6.248954840198415], [-75.85479725668733, 6.2464759012604105], [-75.93314294461823, 6.21672863400434], [-76.0041437243056, 6.284899454799499], [-75.98822975644464, 6.344393989311637], [-75.90498746301806, 6.39645170700976], [-75.83153838058286, 6.397691176478762]]]}}, {"id": 296, "type": "Feature", "properties": {"MPIO_CCNCT": "05042"}, "geometry": {"type": "Polygon", "coordinates": [[[-75.82296932096541, 6.641866661872331], [-75.80093459623485, 6.537751226476088], [-75.81929686684364, 6.410085871168791], [-75.83153838058286, 6.397691176478762], [-75.90498746301806, 6.39645170700976], [-75.94293615560959, 6.458425180459903], [-76.03841996277536, 6.504285550813011], [-76.00781617842736, 6.634429845058314], [-75.93069464187039, 6.622035150368285], [-75.88050443553966, 6.645585070279338], [-75.83276253195677, 6.68029021541142], [-75.82296932096541, 6.641866661872331]]]}}, {"id": 297, "type": "Feature", "properties": {"MPIO_CCNCT": "05040"}, "geometry": {"type": "Polygon", "coordinates": [[[-74.9134248501427, 7.287630255222833], [-75.02115017104768, 7.14013338841149], [-75.08480604249154, 6.9653681932820835], [-75.17049663866594, 6.905873658769945], [-75.22435929911843, 6.933141987088009], [-75.22435929911843, 7.037257422484251], [-75.25985968896212, 7.115343999031433], [-75.31494650078852, 7.159964899915536], [-75.31739480353637, 7.213262087082661], [-75.3014808356754, 7.226896251241692], [-75.29658423017972, 7.229375190179699], [-75.1913072120226, 7.270277682656793], [-75.16560003317026, 7.355801076017993], [-75.04563319852609, 7.423971896813152], [-74.99421884082143, 7.3942246295570815], [-74.89016597403821, 7.392985160088079], [-74.9134248501427, 7.287630255222833]]]}}, {"id": 298, "type": "Feature", "properties": {"MPIO_CCNCT": "05038"}, "geometry": {"type": "Polygon", "coordinates": [[[-75.24272156972724, 6.9269446397429935], [-75.28801517056229, 6.821589734877749], [-75.37860237223238, 6.773250425586637], [-75.49000014725911, 6.773250425586637], [-75.47163787665032, 6.851337002133818], [-75.37492991811062, 6.900915780893934], [-75.33575707414516, 6.945536681778037], [-75.26842874857957, 6.9703260711580945], [-75.24272156972724, 6.9269446397429935]]]}}, {"id": 299, "type": "Feature", "properties": {"MPIO_CCNCT": "05036"}, "geometry": {"type": "Polygon", "coordinates": [[[-75.67974361021675, 6.163431446837217], [-75.67239870197322, 6.118810545953114], [-75.67729530746891, 6.087823809228041], [-75.74707193578236, 6.069231767192997], [-75.76665835776508, 6.134923649050151], [-75.74707193578236, 6.146078874271176], [-75.6944334267038, 6.19441818356229], [-75.67974361021675, 6.163431446837217]]]}}, {"id": 300, "type": "Feature", "properties": {"MPIO_CCNCT": "05034"}, "geometry": {"type": "Polygon", "coordinates": [[[-75.83643498607853, 5.729617132686206], [-75.8095036558523, 5.655248964546034], [-75.87315952729614, 5.636656922510991], [-75.8707112245483, 5.543696712335775], [-75.90621161439199, 5.48172323888563], [-75.98333315094895, 5.518907322955716], [-76.00904032980128, 5.567246632246828], [-76.00659202705344, 5.62302275835196], [-76.07392035261906, 5.677559414988085], [-76.00291957293169, 5.670122598174068], [-75.90621161439199, 5.697390926492131], [-75.89274594927886, 5.754406522066265], [-75.87315952729614, 5.775477503039314], [-75.83643498607853, 5.729617132686206]]]}}, {"id": 301, "type": "Feature", "properties": {"MPIO_CCNCT": "05031"}, "geometry": {"type": "Polygon", "coordinates": [[[-74.9134248501427, 7.287630255222833], [-74.91587315289054, 7.264080335311778], [-74.84242407045534, 7.133936041066477], [-74.85833803831629, 7.0471731782362745], [-74.83752746495965, 6.991397052131145], [-74.8767003089251, 6.848858063195813], [-74.92076975838623, 6.750939975144584], [-75.02604677654335, 6.833984429567778], [-75.0590988636392, 6.767053078241622], [-75.10928906996993, 6.781926711869657], [-75.18151400103123, 6.8463791242578065], [-75.17049663866594, 6.905873658769945], [-75.08480604249154, 6.9653681932820835], [-75.02115017104768, 7.14013338841149], [-74.9134248501427, 7.287630255222833]]]}}, {"id": 302, "type": "Feature", "properties": {"MPIO_CCNCT": "05030"}, "geometry": {"type": "Polygon", "coordinates": [[[-75.66995039922539, 5.998582007459833], [-75.69933003219947, 5.981229434893793], [-75.76665835776508, 5.999821476928837], [-75.74707193578236, 6.069231767192997], [-75.67729530746891, 6.087823809228041], [-75.66995039922539, 5.998582007459833]]]}}, {"id": 303, "type": "Feature", "properties": {"MPIO_CCNCT": "05021"}, "geometry": {"type": "Polygon", "coordinates": [[[-74.98687393257791, 6.385296481788734], [-75.11663397821346, 6.30225202736554], [-75.17049663866594, 6.297294149489529], [-75.14478945981362, 6.411325340637793], [-75.08847849661329, 6.3939727680717535], [-75.03339168478688, 6.4175226879828084], [-74.98687393257791, 6.385296481788734]]]}}, {"id": 304, "type": "Feature", "properties": {"MPIO_CCNCT": "05004"}, "geometry": {"type": "Polygon", "coordinates": [[[-76.01148863254912, 6.6468245397483425], [-76.00781617842736, 6.634429845058314], [-76.03841996277536, 6.504285550813011], [-76.05800638475809, 6.506764489751015], [-76.16205925154131, 6.592287883112215], [-76.17674906802834, 6.679050745942417], [-76.10329998559314, 6.7137558910744985], [-76.08738601773217, 6.754658383551593], [-76.01148863254912, 6.6468245397483425]]]}}, {"id": 305, "type": "Feature", "properties": {"MPIO_CCNCT": "05002"}, "geometry": {"type": "Polygon", "coordinates": [[[-75.41532691344999, 5.901903388877608], [-75.28434271644052, 5.873395591090542], [-75.26842874857957, 5.853564079586496], [-75.32106725765813, 5.781674850384329], [-75.42267182169351, 5.728377663217204], [-75.42389597306743, 5.696151457023129], [-75.47898278489383, 5.663925250829054], [-75.5561043214508, 5.724659254810195], [-75.53406959672024, 5.8597614269315095], [-75.48632769313735, 5.870916652152536], [-75.48143108764168, 5.934129595071683], [-75.41532691344999, 5.901903388877608]]]}}, {"id": 306, "type": "Feature", "properties": {"MPIO_CCNCT": "05895"}, "geometry": {"type": "Polygon", "coordinates": [[[-74.60738700666265, 7.386787812743064], [-74.69919835970667, 7.312419644602892], [-74.91587315289054, 7.264080335311778], [-74.9134248501427, 7.287630255222833], [-74.89016597403821, 7.392985160088079], [-74.99421884082143, 7.3942246295570815], [-75.02971923066512, 7.4896637786703035], [-75.07990943699585, 7.515692637519365], [-75.01992601967376, 7.581384519376517], [-74.93913202899503, 7.621047542384609], [-74.89995918502959, 7.671865790613728], [-74.8411999190814, 7.668147382206719], [-74.78244065313324, 7.725162977780853], [-74.76407838252443, 7.674344729551734], [-74.82038934572476, 7.588821336190534], [-74.75795762565484, 7.459916511414235], [-74.67471533222826, 7.437606060972183], [-74.60738700666265, 7.386787812743064]]]}}, {"id": 307, "type": "Feature", "properties": {"MPIO_CCNCT": "05893"}, "geometry": {"type": "Polygon", "coordinates": [[[-73.92308638864125, 7.213262087082661], [-73.92920714551086, 7.115343999031433], [-73.88758599879758, 7.0707230981473295], [-73.89737920978894, 6.986439174255132], [-74.01122528756352, 6.9133104755839625], [-74.09446758099008, 6.804237162311708], [-74.10915739747713, 6.776968833993646], [-74.23157253486914, 6.71003748266749], [-74.25605556234756, 6.6753323375354086], [-74.36010842913078, 6.6319509061203075], [-74.42009184645286, 6.7373058109855535], [-74.45191978217478, 6.754658383551593], [-74.38091900248742, 6.910831536645956], [-74.24381404860836, 7.0037917468211734], [-73.91574148039774, 7.295067072036851], [-73.92308638864125, 7.213262087082661]]]}}, {"id": 308, "type": "Feature", "properties": {"MPIO_CCNCT": "05890"}, "geometry": {"type": "Polygon", "coordinates": [[[-74.92076975838623, 6.750939975144584], [-74.9073040932731, 6.7373058109855535], [-74.95014939136031, 6.706319074260481], [-74.91220069876879, 6.636908783996319], [-74.80080292374204, 6.641866661872331], [-74.65023230474986, 6.6988822574464635], [-74.5804556764364, 6.705079604791477], [-74.49721338300984, 6.700121726915466], [-74.56086925445368, 6.638148253465323], [-74.73469874955035, 6.603443108333241], [-74.83875161633357, 6.509243428689022], [-75.01992601967376, 6.538990695945092], [-75.0346158361608, 6.537751226476088], [-75.09337510210898, 6.582372127360193], [-75.13622040019618, 6.547666982228112], [-75.20722117988355, 6.555103799042129], [-75.19742796889219, 6.574935310546175], [-75.12275473508305, 6.657979764969369], [-75.10928906996993, 6.781926711869657], [-75.0590988636392, 6.767053078241622], [-75.02604677654335, 6.833984429567778], [-74.92076975838623, 6.750939975144584]]]}}, {"id": 309, "type": "Feature", "properties": {"MPIO_CCNCT": "05887"}, "geometry": {"type": "Polygon", "coordinates": [[[-75.3014808356754, 7.226896251241692], [-75.31739480353637, 7.213262087082661], [-75.33330877139733, 7.075680976023341], [-75.3137223494146, 7.011228563635191], [-75.33575707414516, 6.945536681778037], [-75.37492991811062, 6.900915780893934], [-75.47163787665032, 6.851337002133818], [-75.49000014725911, 6.773250425586637], [-75.57446659205961, 6.852576471602822], [-75.57569074343353, 6.893478964079916], [-75.60262207365977, 6.975283949034107], [-75.6589330368601, 7.028581136201231], [-75.60874283052938, 7.055849464519294], [-75.53529374809416, 6.990157582662141], [-75.47163787665032, 7.049652117174279], [-75.42389597306743, 7.088075670713369], [-75.38717143184982, 7.171120125136563], [-75.3014808356754, 7.226896251241692]]]}}, {"id": 310, "type": "Feature", "properties": {"MPIO_CCNCT": "05885"}, "geometry": {"type": "Polygon", "coordinates": [[[-74.57923152506248, 6.781926711869657], [-74.5804556764364, 6.705079604791477], [-74.65023230474986, 6.6988822574464635], [-74.80080292374204, 6.641866661872331], [-74.91220069876879, 6.636908783996319], [-74.95014939136031, 6.706319074260481], [-74.9073040932731, 6.7373058109855535], [-74.83507916221181, 6.732347933109541], [-74.75673347428092, 6.789363528683674], [-74.64288739650634, 6.798039814966694], [-74.57923152506248, 6.781926711869657]]]}}, {"id": 311, "type": "Feature", "properties": {"MPIO_CCNCT": "05861"}, "geometry": {"type": "Polygon", "coordinates": [[[-75.76665835776508, 5.999821476928837], [-75.69933003219947, 5.981229434893793], [-75.77522741738252, 5.88083240790456], [-75.85602140806125, 5.937848003478692], [-75.84867649981774, 5.956440045513736], [-75.84133159157422, 6.008497763211857], [-75.76665835776508, 5.999821476928837]]]}}, {"id": 312, "type": "Feature", "properties": {"MPIO_CCNCT": "05858"}, "geometry": {"type": "Polygon", "coordinates": [[[-74.57923152506248, 6.781926711869657], [-74.64288739650634, 6.798039814966694], [-74.75673347428092, 6.789363528683674], [-74.83507916221181, 6.732347933109541], [-74.9073040932731, 6.7373058109855535], [-74.92076975838623, 6.750939975144584], [-74.8767003089251, 6.848858063195813], [-74.83752746495965, 6.991397052131145], [-74.82161349709868, 6.868689574699859], [-74.63309418551498, 6.924465700804989], [-74.57188661681897, 6.8612527578858415], [-74.57923152506248, 6.781926711869657]]]}}, {"id": 313, "type": "Feature", "properties": {"MPIO_CCNCT": "05856"}, "geometry": {"type": "Polygon", "coordinates": [[[-75.59894961953802, 5.681277823395094], [-75.58058734892921, 5.605670185785918], [-75.67607115609499, 5.598233368971901], [-75.64179491762522, 5.75688546100427], [-75.59894961953802, 5.681277823395094]]]}}, {"id": 314, "type": "Feature", "properties": {"MPIO_CCNCT": "05854"}, "geometry": {"type": "Polygon", "coordinates": [[[-75.29658423017972, 7.229375190179699], [-75.3014808356754, 7.226896251241692], [-75.38717143184982, 7.171120125136563], [-75.42389597306743, 7.088075670713369], [-75.47163787665032, 7.049652117174279], [-75.49734505550263, 7.132696571597473], [-75.44470654642407, 7.249206701683745], [-75.52917299122456, 7.298785480443859], [-75.51448317473752, 7.373153648584033], [-75.46062051428503, 7.359519484425002], [-75.27454950544916, 7.388027282212068], [-75.29658423017972, 7.229375190179699]]]}}, {"id": 315, "type": "Feature", "properties": {"MPIO_CCNCT": "05842"}, "geometry": {"type": "Polygon", "coordinates": [[[-75.96497088034016, 6.9802418269101185], [-75.98333315094895, 6.943057742840031], [-76.1008516828453, 6.892239494610914], [-76.12166225620194, 6.851337002133818], [-76.1559384946717, 6.824068673815754], [-76.2465256963418, 6.877365860982879], [-76.22449097161123, 6.92074729239798], [-76.15349019192386, 6.977762887972112], [-76.07514450399297, 6.940578803902026], [-75.98210899957503, 7.001312807883167], [-75.96497088034016, 6.9802418269101185]]]}}, {"id": 316, "type": "Feature", "properties": {"MPIO_CCNCT": "05837"}, "geometry": {"type": "Polygon", "coordinates": [[[-76.94288751268907, 8.113065544605952], [-76.8830844107803, 8.043706631314594], [-76.9247055574936, 8.02511458927955], [-76.92225725474574, 7.917280745476299], [-76.8279975989539, 7.902407111848264], [-76.74842775964909, 7.92223862335231], [-76.73373794316204, 8.070974959632657], [-76.73863454865773, 8.173850925559897], [-76.7741349385014, 8.266811135735113], [-76.62234016813531, 8.33002407865426], [-76.56602920493498, 8.400673838387425], [-76.44483821891687, 8.372166040600359], [-76.43382085655159, 8.450252617147541], [-76.40321707220359, 8.463886781306572], [-76.39342386121223, 8.379602857414376], [-76.41056198044711, 8.191203498125937], [-76.40199292082967, 8.10196169635773], [-76.42525179693415, 8.073453898570664], [-76.53297711783912, 7.963141115829407], [-76.75332436514476, 7.878857191937211], [-76.80473872284941, 7.868941436185187], [-76.8096353283451, 7.771023348133959], [-76.8096353283451, 7.668147382206719], [-76.7129273698054, 7.593779214066547], [-76.64437489286587, 7.468592797697255], [-76.6823235854574, 7.467353328228253], [-76.80106626872765, 7.571468763624495], [-76.93572291985888, 7.583863458314523], [-76.96020594733727, 7.639639584419653], [-77.12301808006866, 7.789615390169002], [-77.07527617648577, 7.8478704552121386], [-77.02631012152897, 7.8900124171582355], [-76.99693048855488, 8.018917241934536], [-76.93817122260671, 8.068496020694651], [-76.94288751268907, 8.113065544605952]]]}}, {"id": 317, "type": "Feature", "properties": {"MPIO_CCNCT": "05819"}, "geometry": {"type": "Polygon", "coordinates": [[[-75.68708851846027, 7.08435726230636], [-75.6589330368601, 7.028581136201231], [-75.73605457341708, 6.9269446397429935], [-75.76543420639116, 7.062046811864308], [-75.68708851846027, 7.08435726230636]]]}}, {"id": 318, "type": "Feature", "properties": {"MPIO_CCNCT": "05809"}, "geometry": {"type": "Polygon", "coordinates": [[[-75.74707193578236, 6.069231767192997], [-75.76665835776508, 5.999821476928837], [-75.84133159157422, 6.008497763211857], [-75.85479725668733, 6.10021850391807], [-75.76665835776508, 6.134923649050151], [-75.74707193578236, 6.069231767192997]]]}}, {"id": 319, "type": "Feature", "properties": {"MPIO_CCNCT": "05792"}, "geometry": {"type": "Polygon", "coordinates": [[[-75.77522741738252, 5.88083240790456], [-75.76053760089547, 5.873395591090542], [-75.82052101821758, 5.821337873392421], [-75.88662519240926, 5.864719304807521], [-75.88540104103534, 5.906861266753619], [-75.85602140806125, 5.937848003478692], [-75.77522741738252, 5.88083240790456]]]}}, {"id": 320, "type": "Feature", "properties": {"MPIO_CCNCT": "05790"}, "geometry": {"type": "Polygon", "coordinates": [[[-75.16560003317026, 7.355801076017993], [-75.1913072120226, 7.270277682656793], [-75.29658423017972, 7.229375190179699], [-75.27454950544916, 7.388027282212068], [-75.46062051428503, 7.359519484425002], [-75.51448317473752, 7.373153648584033], [-75.56834583519002, 7.3805904653980505], [-75.54141450496377, 7.49214271760831], [-75.60139792228586, 7.5900608056595384], [-75.48510354176344, 7.736318203001879], [-75.43858578955447, 7.669386851675723], [-75.36636085849318, 7.6185686034466045], [-75.33208462002341, 7.535524149023411], [-75.27454950544916, 7.534284679554409], [-75.24884232659684, 7.457437572476229], [-75.16560003317026, 7.355801076017993]]]}}, {"id": 321, "type": "Feature", "properties": {"MPIO_CCNCT": "05789"}, "geometry": {"type": "Polygon", "coordinates": [[[-75.6405707662513, 5.761843338880283], [-75.64179491762522, 5.75688546100427], [-75.67607115609499, 5.598233368971901], [-75.71401984868652, 5.547415120742782], [-75.72993381654747, 5.563528223839821], [-75.75196854127805, 5.627980636227971], [-75.80705535310445, 5.65400949507703], [-75.74462363303452, 5.733335541093215], [-75.66505379372971, 5.800266892419371], [-75.6405707662513, 5.761843338880283]]]}}, {"id": 322, "type": "Feature", "properties": {"MPIO_CCNCT": "05761"}, "geometry": {"type": "Polygon", "coordinates": [[[-75.65036397724266, 6.501806611875004], [-75.73238211929532, 6.490651386653978], [-75.7801240228782, 6.420001626920815], [-75.81929686684364, 6.410085871168791], [-75.80093459623485, 6.537751226476088], [-75.71769230280827, 6.635669314527316], [-75.65036397724266, 6.501806611875004]]]}}, {"id": 323, "type": "Feature", "properties": {"MPIO_CCNCT": "05756"}, "geometry": {"type": "Polygon", "coordinates": [[[-74.6404390937585, 5.8597614269315095], [-74.6649221212369, 5.768040686225296], [-74.7138881761937, 5.7692801556942985], [-74.73959535504603, 5.699869865430138], [-74.80692368061165, 5.699869865430138], [-74.88037276304685, 5.745730235783244], [-74.99054638669968, 5.7407723579072325], [-75.09827170760465, 5.759364399942276], [-75.23660081285763, 5.725898724279197], [-75.23537666148371, 5.676319945519083], [-75.2831185650666, 5.475525891540615], [-75.31617065216244, 5.4594127884435775], [-75.31127404666677, 5.510231036672696], [-75.42389597306743, 5.696151457023129], [-75.42267182169351, 5.728377663217204], [-75.32106725765813, 5.781674850384329], [-75.26842874857957, 5.853564079586496], [-75.16560003317026, 5.873395591090542], [-75.05542640951745, 5.919255961443648], [-75.0223743224216, 5.825056281799428], [-75.05420225814352, 5.751927583128259], [-74.95014939136031, 5.781674850384329], [-74.89383842815998, 5.828774690206437], [-74.84364822182926, 5.9266927782576655], [-74.6404390937585, 5.8597614269315095]]]}}, {"id": 324, "type": "Feature", "properties": {"MPIO_CCNCT": "05736"}, "geometry": {"type": "Polygon", "coordinates": [[[-74.35766012638292, 7.472311206104264], [-74.31971143379141, 7.440084999910189], [-74.3980571217223, 7.348364259203976], [-74.38826391073094, 7.266559274249785], [-74.61840436902793, 7.167401716729554], [-74.71021572207195, 7.0707230981473295], [-74.76040592840268, 7.135175510535479], [-74.84242407045534, 7.133936041066477], [-74.91587315289054, 7.264080335311778], [-74.69919835970667, 7.312419644602892], [-74.60738700666265, 7.386787812743064], [-74.56086925445368, 7.42769030522016], [-74.49109262614023, 7.343406381327963], [-74.41397108958326, 7.399182507433094], [-74.41274693820934, 7.459916511414235], [-74.35766012638292, 7.472311206104264]]]}}, {"id": 325, "type": "Feature", "properties": {"MPIO_CCNCT": "05697"}, "geometry": {"type": "Polygon", "coordinates": [[[-75.23292835873588, 6.163431446837217], [-75.16682418454418, 6.101457973387072], [-75.22068684499668, 6.113852668077101], [-75.26842874857957, 6.056837072502969], [-75.30760159254501, 6.143599935333171], [-75.2525147807186, 6.170868263651235], [-75.23292835873588, 6.163431446837217]]]}}, {"id": 326, "type": "Feature", "properties": {"MPIO_CCNCT": "05690"}, "geometry": {"type": "Polygon", "coordinates": [[[-75.13622040019618, 6.547666982228112], [-75.0346158361608, 6.537751226476088], [-75.01992601967376, 6.538990695945092], [-75.09704755623073, 6.463383058335914], [-75.03339168478688, 6.4175226879828084], [-75.08847849661329, 6.3939727680717535], [-75.14478945981362, 6.411325340637793], [-75.24149741835332, 6.447269955238877], [-75.26353214308388, 6.508003959220019], [-75.2096694826314, 6.553864329573125], [-75.20722117988355, 6.555103799042129], [-75.13622040019618, 6.547666982228112]]]}}, {"id": 327, "type": "Feature", "properties": {"MPIO_CCNCT": "05686"}, "geometry": {"type": "Polygon", "coordinates": [[[-75.49000014725911, 6.773250425586637], [-75.37860237223238, 6.773250425586637], [-75.28679101918836, 6.677811276473415], [-75.19742796889219, 6.574935310546175], [-75.20722117988355, 6.555103799042129], [-75.2096694826314, 6.553864329573125], [-75.24884232659684, 6.573695841077171], [-75.3369812255191, 6.543948573821103], [-75.42634427581527, 6.543948573821103], [-75.45817221153719, 6.516680245503039], [-75.50836241786791, 6.573695841077171], [-75.54263865633769, 6.679050745942417], [-75.58548395442489, 6.6753323375354086], [-75.62710510113818, 6.785645120276666], [-75.64301906899914, 6.869929044168861], [-75.57569074343353, 6.893478964079916], [-75.57446659205961, 6.852576471602822], [-75.49000014725911, 6.773250425586637]]]}}, {"id": 328, "type": "Feature", "properties": {"MPIO_CCNCT": "05679"}, "geometry": {"type": "Polygon", "coordinates": [[[-75.5916047112945, 6.00601882427385], [-75.56222507832041, 5.975032087548778], [-75.53406959672024, 5.8597614269315095], [-75.5561043214508, 5.724659254810195], [-75.56956998656393, 5.724659254810195], [-75.61976019289466, 5.801506361888375], [-75.63567416075563, 5.966355801265758], [-75.61363943602505, 5.9787504959557864], [-75.5916047112945, 6.00601882427385]]]}}, {"id": 329, "type": "Feature", "properties": {"MPIO_CCNCT": "05306"}, "geometry": {"type": "Polygon", "coordinates": [[[-75.88050443553966, 6.645585070279338], [-75.93069464187039, 6.622035150368285], [-76.00781617842736, 6.634429845058314], [-76.01148863254912, 6.6468245397483425], [-75.95885012347055, 6.726150585764527], [-75.88050443553966, 6.645585070279338]]]}}, {"id": 330, "type": "Feature", "properties": {"MPIO_CCNCT": "05282"}, "geometry": {"type": "Polygon", "coordinates": [[[-75.61363943602505, 5.9787504959557864], [-75.63567416075563, 5.966355801265758], [-75.61976019289466, 5.801506361888375], [-75.6405707662513, 5.761843338880283], [-75.66505379372971, 5.800266892419371], [-75.76053760089547, 5.873395591090542], [-75.77522741738252, 5.88083240790456], [-75.69933003219947, 5.981229434893793], [-75.66995039922539, 5.998582007459833], [-75.61363943602505, 5.9787504959557864]]]}}, {"id": 331, "type": "Feature", "properties": {"MPIO_CCNCT": "05266"}, "geometry": {"type": "Polygon", "coordinates": [[[-75.48510354176344, 6.190699775155281], [-75.47531033077207, 6.158473568961206], [-75.57324244068569, 6.0989790344490675], [-75.59038055992058, 6.1126131986080985], [-75.60507037640761, 6.163431446837217], [-75.58303565167705, 6.189460305686277], [-75.48510354176344, 6.190699775155281]]]}}, {"id": 332, "type": "Feature", "properties": {"MPIO_CCNCT": "05264"}, "geometry": {"type": "Polygon", "coordinates": [[[-75.45817221153719, 6.516680245503039], [-75.46062051428503, 6.511722367627028], [-75.56467338106825, 6.53031440966207], [-75.65403643136442, 6.65426135656236], [-75.58548395442489, 6.6753323375354086], [-75.54263865633769, 6.679050745942417], [-75.50836241786791, 6.573695841077171], [-75.45817221153719, 6.516680245503039]]]}}, {"id": 333, "type": "Feature", "properties": {"MPIO_CCNCT": "05250"}, "geometry": {"type": "Polygon", "coordinates": [[[-74.56086925445368, 7.968098993705418], [-74.5192481077404, 7.901167642379262], [-74.50823074537512, 7.723923508311849], [-74.56086925445368, 7.645836931764668], [-74.56331755720153, 7.4326481830961715], [-74.56086925445368, 7.42769030522016], [-74.60738700666265, 7.386787812743064], [-74.67471533222826, 7.437606060972183], [-74.75795762565484, 7.459916511414235], [-74.82038934572476, 7.588821336190534], [-74.76407838252443, 7.674344729551734], [-74.78244065313324, 7.725162977780853], [-74.80569952923773, 7.784657512292991], [-74.78978556137676, 7.809446901673049], [-74.82038934572476, 7.940830665387354], [-74.7493885660374, 7.945788543263365], [-74.6343183368889, 7.901167642379262], [-74.56086925445368, 7.968098993705418]]]}}, {"id": 334, "type": "Feature", "properties": {"MPIO_CCNCT": "05240"}, "geometry": {"type": "Polygon", "coordinates": [[[-75.71769230280827, 6.360507092408676], [-75.71034739456475, 6.258870595950439], [-75.8095036558523, 6.2601100654194415], [-75.8168485640958, 6.22540492028736], [-75.8523489539395, 6.248954840198415], [-75.85602140806125, 6.3270414167455975], [-75.83153838058286, 6.397691176478762], [-75.81929686684364, 6.410085871168791], [-75.7801240228782, 6.420001626920815], [-75.71769230280827, 6.360507092408676]]]}}, {"id": 335, "type": "Feature", "properties": {"MPIO_CCNCT": "05237"}, "geometry": {"type": "Polygon", "coordinates": [[[-75.2096694826314, 6.553864329573125], [-75.26353214308388, 6.508003959220019], [-75.32351556040597, 6.5129618370960305], [-75.39574049146727, 6.441072607893863], [-75.44837900054583, 6.436114730017852], [-75.48877599588519, 6.429917382672837], [-75.46062051428503, 6.511722367627028], [-75.45817221153719, 6.516680245503039], [-75.42634427581527, 6.543948573821103], [-75.3369812255191, 6.543948573821103], [-75.24884232659684, 6.573695841077171], [-75.2096694826314, 6.553864329573125]]]}}, {"id": 336, "type": "Feature", "properties": {"MPIO_CCNCT": "05212"}, "geometry": {"type": "Polygon", "coordinates": [[[-75.45082730329366, 6.334478233559615], [-75.5010175096244, 6.297294149489529], [-75.52182808298105, 6.2886178632065075], [-75.53284544534633, 6.389014890195742], [-75.48877599588519, 6.429917382672837], [-75.45082730329366, 6.334478233559615]]]}}, {"id": 337, "type": "Feature", "properties": {"MPIO_CCNCT": "05209"}, "geometry": {"type": "Polygon", "coordinates": [[[-75.84133159157422, 6.165910385775222], [-75.85479725668733, 6.10021850391807], [-75.84133159157422, 6.008497763211857], [-75.84867649981774, 5.956440045513736], [-75.9441603069835, 5.9787504959557864], [-75.94293615560959, 6.04444237781294], [-75.998022967436, 6.069231767192997], [-75.99679881606208, 6.077908053476017], [-75.84133159157422, 6.165910385775222]]]}}, {"id": 338, "type": "Feature", "properties": {"MPIO_CCNCT": "05206"}, "geometry": {"type": "Polygon", "coordinates": [[[-75.14478945981362, 6.411325340637793], [-75.17049663866594, 6.297294149489529], [-75.18273815240515, 6.284899454799499], [-75.24272156972724, 6.322083538869586], [-75.3063774411711, 6.391493829133747], [-75.24149741835332, 6.447269955238877], [-75.14478945981362, 6.411325340637793]]]}}, {"id": 339, "type": "Feature", "properties": {"MPIO_CCNCT": "05197"}, "geometry": {"type": "Polygon", "coordinates": [[[-75.16682418454418, 6.101457973387072], [-75.08480604249154, 6.020892457901885], [-75.06889207463057, 5.999821476928837], [-75.05542640951745, 5.919255961443648], [-75.16560003317026, 5.873395591090542], [-75.13622040019618, 5.940326942416698], [-75.26842874857957, 6.056837072502969], [-75.22068684499668, 6.113852668077101], [-75.16682418454418, 6.101457973387072]]]}}, {"id": 340, "type": "Feature", "properties": {"MPIO_CCNCT": "05190"}, "geometry": {"type": "Polygon", "coordinates": [[[-75.0346158361608, 6.537751226476088], [-75.13622040019618, 6.547666982228112], [-75.09337510210898, 6.582372127360193], [-75.0346158361608, 6.537751226476088]]]}}, {"id": 341, "type": "Feature", "properties": {"MPIO_CCNCT": "05172"}, "geometry": {"type": "Polygon", "coordinates": [[[-76.49135597112584, 7.72020509990484], [-76.50237333349112, 7.555355660527457], [-76.57582241592634, 7.485945370263295], [-76.64437489286587, 7.468592797697255], [-76.7129273698054, 7.593779214066547], [-76.8096353283451, 7.668147382206719], [-76.8096353283451, 7.771023348133959], [-76.70191000744012, 7.718965630435838], [-76.61989186538746, 7.733839264063873], [-76.49135597112584, 7.72020509990484]]]}}, {"id": 342, "type": "Feature", "properties": {"MPIO_CCNCT": "05154"}, "geometry": {"type": "Polygon", "coordinates": [[[-74.80569952923773, 7.784657512292991], [-74.78244065313324, 7.725162977780853], [-74.8411999190814, 7.668147382206719], [-74.89995918502959, 7.671865790613728], [-74.93913202899503, 7.621047542384609], [-75.01992601967376, 7.581384519376517], [-75.04196074440432, 7.611131786632587], [-75.03339168478688, 7.771023348133959], [-75.16437588179635, 7.800770615390029], [-75.16437588179635, 7.8900124171582355], [-75.21579023950099, 7.944549073794363], [-75.29413592743188, 7.89125188662724], [-75.33086046864949, 7.925957031759319], [-75.3369812255191, 7.948267482201372], [-75.30882574391893, 7.947028012732369], [-75.22068684499668, 8.066017081756646], [-75.1680483359181, 8.052382917597614], [-75.05665056089137, 8.047425039721603], [-74.9134248501427, 8.099482757419723], [-74.93301127212543, 7.9804936883954465], [-74.92321806113407, 7.809446901673049], [-74.80569952923773, 7.784657512292991]]]}}, {"id": 343, "type": "Feature", "properties": {"MPIO_CCNCT": "05150"}, "geometry": {"type": "Polygon", "coordinates": [[[-75.28679101918836, 6.677811276473415], [-75.37860237223238, 6.773250425586637], [-75.28801517056229, 6.821589734877749], [-75.23048005598804, 6.793081937090683], [-75.28679101918836, 6.677811276473415]]]}}, {"id": 344, "type": "Feature", "properties": {"MPIO_CCNCT": "05148"}, "geometry": {"type": "Polygon", "coordinates": [[[-75.30760159254501, 6.143599935333171], [-75.26842874857957, 6.056837072502969], [-75.13622040019618, 5.940326942416698], [-75.16560003317026, 5.873395591090542], [-75.26842874857957, 5.853564079586496], [-75.28434271644052, 5.873395591090542], [-75.36024010162357, 6.030808213653907], [-75.38717143184982, 6.058076541971971], [-75.35167104200613, 6.144839404802173], [-75.30760159254501, 6.143599935333171]]]}}, {"id": 345, "type": "Feature", "properties": {"MPIO_CCNCT": "05147"}, "geometry": {"type": "Polygon", "coordinates": [[[-76.75332436514476, 7.878857191937211], [-76.70191000744012, 7.811925840611055], [-76.54889108570009, 7.771023348133959], [-76.51706314997817, 7.83547576052211], [-76.4644246408996, 7.870180905654189], [-76.49135597112584, 7.72020509990484], [-76.61989186538746, 7.733839264063873], [-76.70191000744012, 7.718965630435838], [-76.8096353283451, 7.771023348133959], [-76.80473872284941, 7.868941436185187], [-76.75332436514476, 7.878857191937211]]]}}, {"id": 346, "type": "Feature", "properties": {"MPIO_CCNCT": "05145"}, "geometry": {"type": "Polygon", "coordinates": [[[-75.58058734892921, 5.605670185785918], [-75.57079413793785, 5.543696712335775], [-75.57691489480744, 5.516428384017711], [-75.6405707662513, 5.530062548176742], [-75.70422663769516, 5.53749936499076], [-75.71401984868652, 5.547415120742782], [-75.67607115609499, 5.598233368971901], [-75.58058734892921, 5.605670185785918]]]}}, {"id": 347, "type": "Feature", "properties": {"MPIO_CCNCT": "05142"}, "geometry": {"type": "Polygon", "coordinates": [[[-74.71756063031548, 6.39645170700976], [-74.63309418551498, 6.2749836990474765], [-74.71266402481979, 6.240278553915395], [-74.79345801549852, 6.3134072525865665], [-74.83752746495965, 6.433635791079846], [-74.81182028610732, 6.462143588866912], [-74.71756063031548, 6.39645170700976]]]}}, {"id": 348, "type": "Feature", "properties": {"MPIO_CCNCT": "05138"}, "geometry": {"type": "Polygon", "coordinates": [[[-75.95395351797487, 6.966607662751086], [-75.98333315094895, 6.760855730896608], [-75.95885012347055, 6.726150585764527], [-76.01148863254912, 6.6468245397483425], [-76.08738601773217, 6.754658383551593], [-76.12166225620194, 6.851337002133818], [-76.1008516828453, 6.892239494610914], [-75.98333315094895, 6.943057742840031], [-75.96497088034016, 6.9802418269101185], [-75.95395351797487, 6.966607662751086]]]}}, {"id": 349, "type": "Feature", "properties": {"MPIO_CCNCT": "05134"}, "geometry": {"type": "Polygon", "coordinates": [[[-75.22435929911843, 6.933141987088009], [-75.24272156972724, 6.9269446397429935], [-75.26842874857957, 6.9703260711580945], [-75.33575707414516, 6.945536681778037], [-75.3137223494146, 7.011228563635191], [-75.33330877139733, 7.075680976023341], [-75.31739480353637, 7.213262087082661], [-75.31494650078852, 7.159964899915536], [-75.25985968896212, 7.115343999031433], [-75.22435929911843, 7.037257422484251], [-75.22435929911843, 6.933141987088009]]]}}, {"id": 350, "type": "Feature", "properties": {"MPIO_CCNCT": "05129"}, "geometry": {"type": "Polygon", "coordinates": [[[-75.60629452778153, 6.116331607015107], [-75.59038055992058, 6.1126131986080985], [-75.57324244068569, 6.0989790344490675], [-75.5916047112945, 6.00601882427385], [-75.61363943602505, 5.9787504959557864], [-75.66995039922539, 5.998582007459833], [-75.67729530746891, 6.087823809228041], [-75.67239870197322, 6.118810545953114], [-75.60629452778153, 6.116331607015107]]]}}, {"id": 351, "type": "Feature", "properties": {"MPIO_CCNCT": "05125"}, "geometry": {"type": "Polygon", "coordinates": [[[-76.03841996277536, 6.504285550813011], [-75.94293615560959, 6.458425180459903], [-75.90498746301806, 6.39645170700976], [-75.98822975644464, 6.344393989311637], [-76.04209241689713, 6.377859664974716], [-76.05800638475809, 6.506764489751015], [-76.03841996277536, 6.504285550813011]]]}}, {"id": 352, "type": "Feature", "properties": {"MPIO_CCNCT": "05674"}, "geometry": {"type": "Polygon", "coordinates": [[[-75.3063774411711, 6.391493829133747], [-75.24272156972724, 6.322083538869586], [-75.28434271644052, 6.258870595950439], [-75.32718801452774, 6.224165450818358], [-75.3798265236063, 6.232841737101378], [-75.40675785383254, 6.348112397718646], [-75.40430955108471, 6.3654649702846875], [-75.3063774411711, 6.391493829133747]]]}}, {"id": 353, "type": "Feature", "properties": {"MPIO_CCNCT": "05670"}, "geometry": {"type": "Polygon", "coordinates": [[[-74.83875161633357, 6.509243428689022], [-74.81182028610732, 6.462143588866912], [-74.83752746495965, 6.433635791079846], [-74.79345801549852, 6.3134072525865665], [-74.82773425396829, 6.338196641966624], [-74.91709730426446, 6.402649054354773], [-74.98687393257791, 6.385296481788734], [-75.03339168478688, 6.4175226879828084], [-75.09704755623073, 6.463383058335914], [-75.01992601967376, 6.538990695945092], [-74.83875161633357, 6.509243428689022]]]}}, {"id": 354, "type": "Feature", "properties": {"MPIO_CCNCT": "05667"}, "geometry": {"type": "Polygon", "coordinates": [[[-74.82773425396829, 6.338196641966624], [-74.91220069876879, 6.309688844179558], [-75.05787471226529, 6.209291817190323], [-75.11785812958738, 6.235320676039384], [-75.11663397821346, 6.30225202736554], [-74.98687393257791, 6.385296481788734], [-74.91709730426446, 6.402649054354773], [-74.82773425396829, 6.338196641966624]]]}}, {"id": 355, "type": "Feature", "properties": {"MPIO_CCNCT": "05665"}, "geometry": {"type": "Polygon", "coordinates": [[[-76.25509475595925, 8.594031075551875], [-76.2098011551242, 8.52338131581871], [-76.21837021474164, 8.444055269802526], [-76.18042152215011, 8.399434368918422], [-76.28814684305509, 8.328784609185258], [-76.35180271449894, 8.203598192815965], [-76.34813026037718, 8.155258883524853], [-76.40199292082967, 8.10196169635773], [-76.41056198044711, 8.191203498125937], [-76.39342386121223, 8.379602857414376], [-76.40321707220359, 8.463886781306572], [-76.32854383839445, 8.446534208740532], [-76.31997477877701, 8.544452296791759], [-76.25509475595925, 8.594031075551875]]]}}, {"id": 356, "type": "Feature", "properties": {"MPIO_CCNCT": "05664"}, "geometry": {"type": "Polygon", "coordinates": [[[-75.46062051428503, 6.511722367627028], [-75.48877599588519, 6.429917382672837], [-75.53284544534633, 6.389014890195742], [-75.5916047112945, 6.4323963216108435], [-75.66260549098186, 6.40512799329278], [-75.64546737174699, 6.494369795060987], [-75.56467338106825, 6.53031440966207], [-75.46062051428503, 6.511722367627028]]]}}, {"id": 357, "type": "Feature", "properties": {"MPIO_CCNCT": "05660"}, "geometry": {"type": "Polygon", "coordinates": [[[-74.91954560701231, 6.043202908343938], [-74.76897498802012, 5.9936241295838215], [-74.84364822182926, 5.9266927782576655], [-74.95382184548207, 5.952721637106727], [-75.0101328086824, 5.925453308788663], [-75.06889207463057, 5.999821476928837], [-75.08480604249154, 6.020892457901885], [-75.06154716638704, 6.1274868322361336], [-74.95504599685599, 6.10021850391807], [-74.91954560701231, 6.043202908343938]]]}}, {"id": 358, "type": "Feature", "properties": {"MPIO_CCNCT": "05659"}, "geometry": {"type": "Polygon", "coordinates": [[[-76.56602920493498, 8.611383648117915], [-76.6284609250049, 8.72045696139017], [-76.5439944802044, 8.762598923336267], [-76.48645936563015, 8.818375049441396], [-76.45095897578648, 8.689470224665097], [-76.56602920493498, 8.611383648117915]]]}}, {"id": 359, "type": "Feature", "properties": {"MPIO_CCNCT": "05658"}, "geometry": {"type": "Polygon", "coordinates": [[[-75.64301906899914, 6.869929044168861], [-75.62710510113818, 6.785645120276666], [-75.66750209647755, 6.753418914082591], [-75.72626136242572, 6.798039814966694], [-75.73360627066924, 6.805476631780712], [-75.69810588082555, 6.887281616734901], [-75.64301906899914, 6.869929044168861]]]}}, {"id": 360, "type": "Feature", "properties": {"MPIO_CCNCT": "05656"}, "geometry": {"type": "Polygon", "coordinates": [[[-75.65036397724266, 6.501806611875004], [-75.64546737174699, 6.494369795060987], [-75.66260549098186, 6.40512799329278], [-75.66872624785147, 6.372901787098705], [-75.71769230280827, 6.360507092408676], [-75.7801240228782, 6.420001626920815], [-75.73238211929532, 6.490651386653978], [-75.65036397724266, 6.501806611875004]]]}}, {"id": 361, "type": "Feature", "properties": {"MPIO_CCNCT": "05652"}, "geometry": {"type": "Polygon", "coordinates": [[[-74.84364822182926, 5.9266927782576655], [-74.89383842815998, 5.828774690206437], [-74.95014939136031, 5.781674850384329], [-75.05420225814352, 5.751927583128259], [-75.0223743224216, 5.825056281799428], [-75.05542640951745, 5.919255961443648], [-75.06889207463057, 5.999821476928837], [-75.0101328086824, 5.925453308788663], [-74.95382184548207, 5.952721637106727], [-74.84364822182926, 5.9266927782576655]]]}}, {"id": 362, "type": "Feature", "properties": {"MPIO_CCNCT": "05649"}, "geometry": {"type": "Polygon", "coordinates": [[[-74.79345801549852, 6.3134072525865665], [-74.71266402481979, 6.240278553915395], [-74.77264744214187, 6.200615530907303], [-74.82038934572476, 6.086584339759037], [-74.91954560701231, 6.043202908343938], [-74.95504599685599, 6.10021850391807], [-75.06154716638704, 6.1274868322361336], [-75.12153058370913, 6.2316022676323755], [-75.11785812958738, 6.235320676039384], [-75.05787471226529, 6.209291817190323], [-74.91220069876879, 6.309688844179558], [-74.82773425396829, 6.338196641966624], [-74.79345801549852, 6.3134072525865665]]]}}, {"id": 363, "type": "Feature", "properties": {"MPIO_CCNCT": "05647"}, "geometry": {"type": "Polygon", "coordinates": [[[-75.57569074343353, 6.893478964079916], [-75.64301906899914, 6.869929044168861], [-75.69810588082555, 6.887281616734901], [-75.73360627066924, 6.805476631780712], [-75.76421005501724, 6.78812405921467], [-75.73605457341708, 6.9269446397429935], [-75.6589330368601, 7.028581136201231], [-75.60262207365977, 6.975283949034107], [-75.57569074343353, 6.893478964079916]]]}}, {"id": 364, "type": "Feature", "properties": {"MPIO_CCNCT": "05642"}, "geometry": {"type": "Polygon", "coordinates": [[[-75.998022967436, 6.069231767192997], [-75.94293615560959, 6.04444237781294], [-75.9441603069835, 5.9787504959557864], [-75.84867649981774, 5.956440045513736], [-75.85602140806125, 5.937848003478692], [-75.88540104103534, 5.906861266753619], [-75.91478067400942, 5.863479835338518], [-76.05433393063633, 5.931650656133677], [-76.09717922872353, 6.0035398853358455], [-75.998022967436, 6.069231767192997]]]}}, {"id": 365, "type": "Feature", "properties": {"MPIO_CCNCT": "05628"}, "geometry": {"type": "Polygon", "coordinates": [[[-75.73605457341708, 6.9269446397429935], [-75.76421005501724, 6.78812405921467], [-75.8707112245483, 6.784405650807662], [-75.84500404569597, 6.871168513637864], [-75.82296932096541, 6.979002357441116], [-75.77522741738252, 7.04593370876727], [-75.76543420639116, 7.062046811864308], [-75.73605457341708, 6.9269446397429935]]]}}, {"id": 366, "type": "Feature", "properties": {"MPIO_CCNCT": "05615"}, "geometry": {"type": "Polygon", "coordinates": [[[-75.32718801452774, 6.224165450818358], [-75.35167104200613, 6.144839404802173], [-75.38717143184982, 6.058076541971971], [-75.44470654642407, 6.059316011440975], [-75.47531033077207, 6.158473568961206], [-75.48510354176344, 6.190699775155281], [-75.48632769313735, 6.205573408783314], [-75.3798265236063, 6.232841737101378], [-75.32718801452774, 6.224165450818358]]]}}, {"id": 367, "type": "Feature", "properties": {"MPIO_CCNCT": "05607"}, "geometry": {"type": "Polygon", "coordinates": [[[-75.47531033077207, 6.158473568961206], [-75.44470654642407, 6.059316011440975], [-75.45817221153719, 6.001060946397839], [-75.50836241786791, 5.960158453920744], [-75.56222507832041, 5.975032087548778], [-75.5916047112945, 6.00601882427385], [-75.57324244068569, 6.0989790344490675], [-75.47531033077207, 6.158473568961206]]]}}, {"id": 368, "type": "Feature", "properties": {"MPIO_CCNCT": "05604"}, "geometry": {"type": "Polygon", "coordinates": [[[-74.28421104394772, 7.0087496246971845], [-74.24381404860836, 7.0037917468211734], [-74.38091900248742, 6.910831536645956], [-74.45191978217478, 6.754658383551593], [-74.49721338300984, 6.700121726915466], [-74.5804556764364, 6.705079604791477], [-74.57923152506248, 6.781926711869657], [-74.57188661681897, 6.8612527578858415], [-74.63309418551498, 6.924465700804989], [-74.82161349709868, 6.868689574699859], [-74.83752746495965, 6.991397052131145], [-74.85833803831629, 7.0471731782362745], [-74.84242407045534, 7.133936041066477], [-74.76040592840268, 7.135175510535479], [-74.71021572207195, 7.0707230981473295], [-74.61840436902793, 7.167401716729554], [-74.38826391073094, 7.266559274249785], [-74.4102986354615, 7.202106861861635], [-74.35153936951333, 7.081878323368354], [-74.35521182363509, 7.009989094166187], [-74.28421104394772, 7.0087496246971845]]]}}, {"id": 369, "type": "Feature", "properties": {"MPIO_CCNCT": "05591"}, "geometry": {"type": "Polygon", "coordinates": [[[-74.6404390937585, 5.8597614269315095], [-74.84364822182926, 5.9266927782576655], [-74.76897498802012, 5.9936241295838215], [-74.70409496520234, 6.030808213653907], [-74.56699001132328, 6.058076541971971], [-74.58535228193209, 5.925453308788663], [-74.6404390937585, 5.8597614269315095]]]}}, {"id": 370, "type": "Feature", "properties": {"MPIO_CCNCT": "05585"}, "geometry": {"type": "Polygon", "coordinates": [[[-74.63309418551498, 6.2749836990474765], [-74.53393792422744, 6.268786351702461], [-74.61228361215834, 6.1262473627671294], [-74.56699001132328, 6.058076541971971], [-74.70409496520234, 6.030808213653907], [-74.76897498802012, 5.9936241295838215], [-74.91954560701231, 6.043202908343938], [-74.82038934572476, 6.086584339759037], [-74.77264744214187, 6.200615530907303], [-74.71266402481979, 6.240278553915395], [-74.63309418551498, 6.2749836990474765]]]}}, {"id": 371, "type": "Feature", "properties": {"MPIO_CCNCT": "05579"}, "geometry": {"type": "Polygon", "coordinates": [[[-74.36010842913078, 6.6319509061203075], [-74.40907448408758, 6.5860905357672], [-74.39683297034838, 6.45222783311489], [-74.45069563080087, 6.331999294621609], [-74.50823074537512, 6.286138924268503], [-74.52659301598392, 6.273744229578474], [-74.53393792422744, 6.268786351702461], [-74.63309418551498, 6.2749836990474765], [-74.71756063031548, 6.39645170700976], [-74.65023230474986, 6.450988363645886], [-74.60861115803657, 6.581132657891189], [-74.56086925445368, 6.638148253465323], [-74.49721338300984, 6.700121726915466], [-74.45191978217478, 6.754658383551593], [-74.42009184645286, 6.7373058109855535], [-74.36010842913078, 6.6319509061203075]]]}}, {"id": 372, "type": "Feature", "properties": {"MPIO_CCNCT": "05576"}, "geometry": {"type": "Polygon", "coordinates": [[[-75.88540104103534, 5.906861266753619], [-75.88662519240926, 5.864719304807521], [-75.82052101821758, 5.821337873392421], [-75.83643498607853, 5.729617132686206], [-75.87315952729614, 5.775477503039314], [-75.91478067400942, 5.847366732241481], [-75.91478067400942, 5.863479835338518], [-75.88540104103534, 5.906861266753619]]]}}, {"id": 373, "type": "Feature", "properties": {"MPIO_CCNCT": "05543"}, "geometry": {"type": "Polygon", "coordinates": [[[-75.77522741738252, 7.04593370876727], [-75.82296932096541, 6.979002357441116], [-75.84500404569597, 6.871168513637864], [-75.91722897675727, 6.964128723813081], [-75.95395351797487, 6.966607662751086], [-75.96497088034016, 6.9802418269101185], [-75.98210899957503, 7.001312807883167], [-75.96619503171408, 7.13145710212847], [-75.94538445835744, 7.185993758764598], [-75.88540104103534, 7.221938373365681], [-75.87928028416574, 7.115343999031433], [-75.77522741738252, 7.04593370876727]]]}}, {"id": 374, "type": "Feature", "properties": {"MPIO_CCNCT": "05541"}, "geometry": {"type": "Polygon", "coordinates": [[[-75.18273815240515, 6.284899454799499], [-75.19620381751827, 6.241518023384399], [-75.16315173042243, 6.172107733120237], [-75.23292835873588, 6.163431446837217], [-75.2525147807186, 6.170868263651235], [-75.28434271644052, 6.258870595950439], [-75.24272156972724, 6.322083538869586], [-75.18273815240515, 6.284899454799499]]]}}, {"id": 375, "type": "Feature", "properties": {"MPIO_CCNCT": "05501"}, "geometry": {"type": "Polygon", "coordinates": [[[-75.72014060555611, 6.651782417624354], [-75.71769230280827, 6.635669314527316], [-75.80093459623485, 6.537751226476088], [-75.82296932096541, 6.641866661872331], [-75.72014060555611, 6.651782417624354]]]}}, {"id": 376, "type": "Feature", "properties": {"MPIO_CCNCT": "05495"}, "geometry": {"type": "Polygon", "coordinates": [[[-74.61473191490617, 8.031311936624565], [-74.56086925445368, 7.968098993705418], [-74.6343183368889, 7.901167642379262], [-74.7493885660374, 7.945788543263365], [-74.82038934572476, 7.940830665387354], [-74.78978556137676, 7.809446901673049], [-74.80569952923773, 7.784657512292991], [-74.92321806113407, 7.809446901673049], [-74.93301127212543, 7.9804936883954465], [-74.9134248501427, 8.099482757419723], [-74.83018255671612, 8.199879784408957], [-74.78488895588109, 8.131708963613798], [-74.63064588276714, 8.05486185653562], [-74.61473191490617, 8.031311936624565]]]}}, {"id": 377, "type": "Feature", "properties": {"MPIO_CCNCT": "05490"}, "geometry": {"type": "Polygon", "coordinates": [[[-76.56602920493498, 8.611383648117915], [-76.57092581043065, 8.581636380861847], [-76.43382085655159, 8.450252617147541], [-76.44483821891687, 8.372166040600359], [-76.56602920493498, 8.400673838387425], [-76.62234016813531, 8.33002407865426], [-76.7741349385014, 8.266811135735113], [-76.75822097064045, 8.391997552104405], [-76.82432514483213, 8.496112987500647], [-76.92715386024143, 8.541973357853754], [-76.88553271352815, 8.622538873338941], [-76.79861796597982, 8.631215159621961], [-76.64927149836154, 8.670878182630053], [-76.6284609250049, 8.72045696139017], [-76.56602920493498, 8.611383648117915]]]}}, {"id": 378, "type": "Feature", "properties": {"MPIO_CCNCT": "05483"}, "geometry": {"type": "Polygon", "coordinates": [[[-75.2831185650666, 5.475525891540615], [-75.23537666148371, 5.676319945519083], [-75.16070342767458, 5.646572678263013], [-75.06889207463057, 5.662685781360052], [-75.13254794607442, 5.5412177733977686], [-75.2831185650666, 5.475525891540615]]]}}, {"id": 379, "type": "Feature", "properties": {"MPIO_CCNCT": "05480"}, "geometry": {"type": "Polygon", "coordinates": [[[-76.38118234747303, 7.391745690619077], [-76.21837021474164, 7.150049144163514], [-76.31752647602917, 7.152528083101519], [-76.39587216396006, 7.1872332282336], [-76.48523521425624, 7.135175510535479], [-76.53052881509129, 7.255404049028758], [-76.61499525989178, 7.312419644602892], [-76.6823235854574, 7.467353328228253], [-76.64437489286587, 7.468592797697255], [-76.57582241592634, 7.485945370263295], [-76.50237333349112, 7.555355660527457], [-76.38118234747303, 7.391745690619077]]]}}, {"id": 380, "type": "Feature", "properties": {"MPIO_CCNCT": "05467"}, "geometry": {"type": "Polygon", "coordinates": [[[-75.56222507832041, 5.975032087548778], [-75.50836241786791, 5.960158453920744], [-75.48143108764168, 5.934129595071683], [-75.48632769313735, 5.870916652152536], [-75.53406959672024, 5.8597614269315095], [-75.56222507832041, 5.975032087548778]]]}}, {"id": 381, "type": "Feature", "properties": {"MPIO_CCNCT": "05440"}, "geometry": {"type": "Polygon", "coordinates": [[[-75.28434271644052, 6.258870595950439], [-75.2525147807186, 6.170868263651235], [-75.30760159254501, 6.143599935333171], [-75.35167104200613, 6.144839404802173], [-75.32718801452774, 6.224165450818358], [-75.28434271644052, 6.258870595950439]]]}}, {"id": 382, "type": "Feature", "properties": {"MPIO_CCNCT": "05425"}, "geometry": {"type": "Polygon", "coordinates": [[[-74.56086925445368, 6.638148253465323], [-74.60861115803657, 6.581132657891189], [-74.65023230474986, 6.450988363645886], [-74.71756063031548, 6.39645170700976], [-74.81182028610732, 6.462143588866912], [-74.83875161633357, 6.509243428689022], [-74.73469874955035, 6.603443108333241], [-74.56086925445368, 6.638148253465323]]]}}, {"id": 383, "type": "Feature", "properties": {"MPIO_CCNCT": "05411"}, "geometry": {"type": "Polygon", "coordinates": [[[-75.73360627066924, 6.805476631780712], [-75.72626136242572, 6.798039814966694], [-75.72014060555611, 6.651782417624354], [-75.82296932096541, 6.641866661872331], [-75.83276253195677, 6.68029021541142], [-75.8707112245483, 6.784405650807662], [-75.76421005501724, 6.78812405921467], [-75.73360627066924, 6.805476631780712]]]}}, {"id": 384, "type": "Feature", "properties": {"MPIO_CCNCT": "05400"}, "geometry": {"type": "Polygon", "coordinates": [[[-75.28434271644052, 5.873395591090542], [-75.41532691344999, 5.901903388877608], [-75.41899936757174, 5.981229434893793], [-75.36024010162357, 6.030808213653907], [-75.28434271644052, 5.873395591090542]]]}}, {"id": 385, "type": "Feature", "properties": {"MPIO_CCNCT": "05390"}, "geometry": {"type": "Polygon", "coordinates": [[[-75.56956998656393, 5.724659254810195], [-75.59894961953802, 5.681277823395094], [-75.64179491762522, 5.75688546100427], [-75.6405707662513, 5.761843338880283], [-75.61976019289466, 5.801506361888375], [-75.56956998656393, 5.724659254810195]]]}}, {"id": 386, "type": "Feature", "properties": {"MPIO_CCNCT": "05376"}, "geometry": {"type": "Polygon", "coordinates": [[[-75.38717143184982, 6.058076541971971], [-75.36024010162357, 6.030808213653907], [-75.41899936757174, 5.981229434893793], [-75.41532691344999, 5.901903388877608], [-75.48143108764168, 5.934129595071683], [-75.50836241786791, 5.960158453920744], [-75.45817221153719, 6.001060946397839], [-75.44470654642407, 6.059316011440975], [-75.38717143184982, 6.058076541971971]]]}}, {"id": 387, "type": "Feature", "properties": {"MPIO_CCNCT": "05368"}, "geometry": {"type": "Polygon", "coordinates": [[[-75.66505379372971, 5.800266892419371], [-75.74462363303452, 5.733335541093215], [-75.80705535310445, 5.65400949507703], [-75.8095036558523, 5.655248964546034], [-75.83643498607853, 5.729617132686206], [-75.82052101821758, 5.821337873392421], [-75.76053760089547, 5.873395591090542], [-75.66505379372971, 5.800266892419371]]]}}, {"id": 388, "type": "Feature", "properties": {"MPIO_CCNCT": "05364"}, "geometry": {"type": "Polygon", "coordinates": [[[-75.80705535310445, 5.65400949507703], [-75.75196854127805, 5.627980636227971], [-75.72993381654747, 5.563528223839821], [-75.86826292180046, 5.49039952516865], [-75.90621161439199, 5.48172323888563], [-75.8707112245483, 5.543696712335775], [-75.87315952729614, 5.636656922510991], [-75.8095036558523, 5.655248964546034], [-75.80705535310445, 5.65400949507703]]]}}, {"id": 389, "type": "Feature", "properties": {"MPIO_CCNCT": "05360"}, "geometry": {"type": "Polygon", "coordinates": [[[-75.58303565167705, 6.189460305686277], [-75.60507037640761, 6.163431446837217], [-75.62588094976425, 6.153515691085193], [-75.64791567449483, 6.172107733120237], [-75.58303565167705, 6.189460305686277]]]}}, {"id": 390, "type": "Feature", "properties": {"MPIO_CCNCT": "05353"}, "geometry": {"type": "Polygon", "coordinates": [[[-75.87315952729614, 5.775477503039314], [-75.89274594927886, 5.754406522066265], [-75.9551776693488, 5.797787953481366], [-75.91478067400942, 5.847366732241481], [-75.87315952729614, 5.775477503039314]]]}}, {"id": 391, "type": "Feature", "properties": {"MPIO_CCNCT": "05347"}, "geometry": {"type": "Polygon", "coordinates": [[[-75.71034739456475, 6.258870595950439], [-75.6944334267038, 6.19441818356229], [-75.74707193578236, 6.146078874271176], [-75.8168485640958, 6.22540492028736], [-75.8095036558523, 6.2601100654194415], [-75.71034739456475, 6.258870595950439]]]}}, {"id": 392, "type": "Feature", "properties": {"MPIO_CCNCT": "05321"}, "geometry": {"type": "Polygon", "coordinates": [[[-75.11785812958738, 6.235320676039384], [-75.12153058370913, 6.2316022676323755], [-75.16315173042243, 6.172107733120237], [-75.19620381751827, 6.241518023384399], [-75.18273815240515, 6.284899454799499], [-75.17049663866594, 6.297294149489529], [-75.11663397821346, 6.30225202736554], [-75.11785812958738, 6.235320676039384]]]}}, {"id": 393, "type": "Feature", "properties": {"MPIO_CCNCT": "05318"}, "geometry": {"type": "Polygon", "coordinates": [[[-75.40675785383254, 6.348112397718646], [-75.3798265236063, 6.232841737101378], [-75.48632769313735, 6.205573408783314], [-75.5010175096244, 6.297294149489529], [-75.45082730329366, 6.334478233559615], [-75.40675785383254, 6.348112397718646]]]}}, {"id": 394, "type": "Feature", "properties": {"MPIO_CCNCT": "05315"}, "geometry": {"type": "Polygon", "coordinates": [[[-75.17049663866594, 6.905873658769945], [-75.18151400103123, 6.8463791242578065], [-75.23048005598804, 6.793081937090683], [-75.28801517056229, 6.821589734877749], [-75.24272156972724, 6.9269446397429935], [-75.22435929911843, 6.933141987088009], [-75.17049663866594, 6.905873658769945]]]}}, {"id": 395, "type": "Feature", "properties": {"MPIO_CCNCT": "05313"}, "geometry": {"type": "Polygon", "coordinates": [[[-75.06154716638704, 6.1274868322361336], [-75.08480604249154, 6.020892457901885], [-75.16682418454418, 6.101457973387072], [-75.23292835873588, 6.163431446837217], [-75.16315173042243, 6.172107733120237], [-75.12153058370913, 6.2316022676323755], [-75.06154716638704, 6.1274868322361336]]]}}, {"id": 396, "type": "Feature", "properties": {"MPIO_CCNCT": "05310"}, "geometry": {"type": "Polygon", "coordinates": [[[-75.10928906996993, 6.781926711869657], [-75.12275473508305, 6.657979764969369], [-75.19742796889219, 6.574935310546175], [-75.28679101918836, 6.677811276473415], [-75.23048005598804, 6.793081937090683], [-75.18151400103123, 6.8463791242578065], [-75.10928906996993, 6.781926711869657]]]}}, {"id": 397, "type": "Feature", "properties": {"MPIO_CCNCT": "05308"}, "geometry": {"type": "Polygon", "coordinates": [[[-75.40430955108471, 6.3654649702846875], [-75.40675785383254, 6.348112397718646], [-75.45082730329366, 6.334478233559615], [-75.48877599588519, 6.429917382672837], [-75.44837900054583, 6.436114730017852], [-75.40430955108471, 6.3654649702846875]]]}}, {"id": 398, "type": "Feature", "properties": {"MPIO_CCNCT": "05234"}, "geometry": {"type": "Polygon", "coordinates": [[[-76.21837021474164, 7.150049144163514], [-76.15716264604562, 7.1277386937214615], [-76.06167883887986, 7.171120125136563], [-75.96619503171408, 7.13145710212847], [-75.98210899957503, 7.001312807883167], [-76.07514450399297, 6.940578803902026], [-76.15349019192386, 6.977762887972112], [-76.22449097161123, 6.92074729239798], [-76.289370994429, 6.8996763114249315], [-76.27590532931589, 6.804237162311708], [-76.31507817328134, 6.774489895055639], [-76.40811367769926, 6.850097532664815], [-76.43014840242984, 6.743503158330567], [-76.52073560409993, 6.764574139303615], [-76.57704656730026, 6.695163849039455], [-76.60152959477865, 6.714995360543501], [-76.57214996180457, 6.8463791242578065], [-76.51216654448248, 6.925705170273991], [-76.54766693432617, 7.002552277352169], [-76.52563220959561, 7.105428243279409], [-76.48523521425624, 7.135175510535479], [-76.39587216396006, 7.1872332282336], [-76.31752647602917, 7.152528083101519], [-76.21837021474164, 7.150049144163514]]]}}, {"id": 399, "type": "Feature", "properties": {"MPIO_CCNCT": "05284"}, "geometry": {"type": "Polygon", "coordinates": [[[-76.12166225620194, 6.851337002133818], [-76.08738601773217, 6.754658383551593], [-76.10329998559314, 6.7137558910744985], [-76.17674906802834, 6.679050745942417], [-76.16205925154131, 6.592287883112215], [-76.22693927435908, 6.571216902139167], [-76.31752647602917, 6.505525020282013], [-76.3799581960991, 6.5935273525812175], [-76.48401106288232, 6.496848733998993], [-76.52318390684776, 6.587330005236204], [-76.56358090218713, 6.566259024263154], [-76.57337411317849, 6.63319037558931], [-76.57704656730026, 6.695163849039455], [-76.52073560409993, 6.764574139303615], [-76.43014840242984, 6.743503158330567], [-76.40811367769926, 6.850097532664815], [-76.31507817328134, 6.774489895055639], [-76.27590532931589, 6.804237162311708], [-76.289370994429, 6.8996763114249315], [-76.22449097161123, 6.92074729239798], [-76.2465256963418, 6.877365860982879], [-76.1559384946717, 6.824068673815754], [-76.12166225620194, 6.851337002133818]]]}}, {"id": 400, "type": "Feature", "properties": {"MPIO_CCNCT": "05361"}, "geometry": {"type": "Polygon", "coordinates": [[[-75.67239870197322, 7.597497622473556], [-75.60139792228586, 7.5900608056595384], [-75.54141450496377, 7.49214271760831], [-75.56834583519002, 7.3805904653980505], [-75.51448317473752, 7.373153648584033], [-75.52917299122456, 7.298785480443859], [-75.44470654642407, 7.249206701683745], [-75.60507037640761, 7.17855694195058], [-75.68708851846027, 7.08435726230636], [-75.76543420639116, 7.062046811864308], [-75.77522741738252, 7.04593370876727], [-75.87928028416574, 7.115343999031433], [-75.88540104103534, 7.221938373365681], [-75.94538445835744, 7.185993758764598], [-75.96619503171408, 7.13145710212847], [-76.06167883887986, 7.171120125136563], [-76.15716264604562, 7.1277386937214615], [-76.21837021474164, 7.150049144163514], [-76.38118234747303, 7.391745690619077], [-76.05555808201025, 7.364477362301013], [-75.96619503171408, 7.357040545486996], [-75.84500404569597, 7.347124789734972], [-75.74217533028667, 7.612371256101589], [-75.67239870197322, 7.597497622473556]]]}}, {"id": 401, "type": "Feature", "properties": {"MPIO_CCNCT": "05847"}, "geometry": {"type": "Polygon", "coordinates": [[[-76.16205925154131, 6.592287883112215], [-76.05800638475809, 6.506764489751015], [-76.04209241689713, 6.377859664974716], [-75.98822975644464, 6.344393989311637], [-76.0041437243056, 6.284899454799499], [-76.04821317376673, 6.261349534888446], [-75.99679881606208, 6.077908053476017], [-75.998022967436, 6.069231767192997], [-76.09717922872353, 6.0035398853358455], [-76.15961094879347, 6.0035398853358455], [-76.19143888451539, 6.059316011440975], [-76.2098011551242, 6.184502427810266], [-76.2465256963418, 6.204333939314312], [-76.37750989335126, 6.1931787140932855], [-76.44483821891687, 6.168389324713228], [-76.52318390684776, 6.219207572942347], [-76.52440805822168, 6.382817542850727], [-76.56358090218713, 6.566259024263154], [-76.52318390684776, 6.587330005236204], [-76.48401106288232, 6.496848733998993], [-76.3799581960991, 6.5935273525812175], [-76.31752647602917, 6.505525020282013], [-76.22693927435908, 6.571216902139167], [-76.16205925154131, 6.592287883112215]]]}}, {"id": 402, "type": "Feature", "properties": {"MPIO_CCNCT": "05475"}, "geometry": {"type": "Polygon", "coordinates": [[[-76.54766693432617, 7.002552277352169], [-76.51216654448248, 6.925705170273991], [-76.57214996180457, 6.8463791242578065], [-76.60152959477865, 6.714995360543501], [-76.57704656730026, 6.695163849039455], [-76.57337411317849, 6.63319037558931], [-76.70803076430971, 6.66293764284538], [-76.74965191102301, 6.639387722934325], [-76.84880817231054, 6.659219234438371], [-76.8708428970411, 6.732347933109541], [-76.91736064925007, 6.784405650807662], [-76.90022253001518, 6.829026551691767], [-76.79372136048413, 6.86497116629285], [-76.82432514483213, 7.005031216290176], [-76.67620282858779, 7.029820605670233], [-76.54766693432617, 7.002552277352169]]]}}, {"id": 403, "type": "Feature", "properties": {"MPIO_CCNCT": "05873"}, "geometry": {"type": "Polygon", "coordinates": [[[-76.90022253001518, 6.829026551691767], [-76.91736064925007, 6.784405650807662], [-76.8708428970411, 6.732347933109541], [-76.84880817231054, 6.659219234438371], [-76.74965191102301, 6.639387722934325], [-76.70803076430971, 6.66293764284538], [-76.57337411317849, 6.63319037558931], [-76.56358090218713, 6.566259024263154], [-76.52440805822168, 6.382817542850727], [-76.52318390684776, 6.219207572942347], [-76.44483821891687, 6.168389324713228], [-76.60152959477865, 6.191939244624283], [-76.71537567255324, 6.170868263651235], [-76.71782397530107, 6.215489164535338], [-76.77658324124924, 6.286138924268503], [-76.79127305773629, 6.341915050373633], [-76.77780739262317, 6.489411917184976], [-76.89899837864127, 6.5798931884221865], [-76.95408519046768, 6.6753323375354086], [-76.97244746107648, 6.798039814966694], [-76.91368819512832, 6.8463791242578065], [-76.90022253001518, 6.829026551691767]]]}}, {"id": 404, "type": "Feature", "properties": {"MPIO_CCNCT": "05045"}, "geometry": {"type": "Polygon", "coordinates": [[[-76.42525179693415, 8.073453898570664], [-76.41178613182103, 8.006522547244508], [-76.4215793428124, 7.912322867600288], [-76.4644246408996, 7.870180905654189], [-76.51706314997817, 7.83547576052211], [-76.54889108570009, 7.771023348133959], [-76.70191000744012, 7.811925840611055], [-76.75332436514476, 7.878857191937211], [-76.53297711783912, 7.963141115829407], [-76.42525179693415, 8.073453898570664]]]}}, {"id": 1120, "type": "Feature", "properties": {"MPIO_CCNCT": "05631"}, "geometry": {"type": "Polygon", "coordinates": [[[-75.59038055992058, 6.1126131986080985], [-75.60629452778153, 6.116331607015107], [-75.62588094976425, 6.153515691085193], [-75.60507037640761, 6.163431446837217], [-75.59038055992058, 6.1126131986080985]]]}}, {"id": 1121, "type": "Feature", "properties": {"MPIO_CCNCT": "05380"}, "geometry": {"type": "Polygon", "coordinates": [[[-75.64791567449483, 6.172107733120237], [-75.62588094976425, 6.153515691085193], [-75.60629452778153, 6.116331607015107], [-75.67239870197322, 6.118810545953114], [-75.67974361021675, 6.163431446837217], [-75.64791567449483, 6.172107733120237]]]}}]}